[{"OBJECT_NAME":"STARLINK-5037","OBJECT_ID":"2022-119L","EPOCH":"2026-03-09T22:23:46.104864","MEAN_MOTION":15.08829998,"ECCENTRICITY":0.00011991,"INCLINATION":53.2185,"RA_OF_ASC_NODE":322.8658,"ARG_OF_PERICENTER":95.8636,"MEAN_ANOMALY":264.2493,"EPHEMERIS_TYPE":0,"CLASSIFICATION_TYPE":"U","NORAD_CAT_ID":53896,"ELEMENT_SET_NO":999,"REV_AT_EPOCH":19172,"BSTAR":2.0201437e-5,"MEAN_MOTION_DOT":3.4e-7,"MEAN_MOTION_DDOT":0},{"OBJECT_NAME":"DELTA 2 R\/B(1)","OBJECT_ID":"1992-089B","EPOCH":"2026-03-09T21:18:04.780512","MEAN_MOTION":14.95843552,"ECCENTRICITY":0.00502643,"INCLINATION":20.2848,"RA_OF_ASC_NODE":268.5776,"ARG_OF_PERICENTER":187.692,"MEAN_ANOMALY":172.2737,"EPHEMERIS_TYPE":0,"CLASSIFICATION_TYPE":"U","NORAD_CAT_ID":22276,"ELEMENT_SET_NO":999,"REV_AT_EPOCH":77681,"BSTAR":0.00031307363,"MEAN_MOTION_DOT":4.132e-5,"MEAN_MOTION_DDOT":0}]
